IRIDIUM 921             
1 24873U 97034E   24161.64834126  .00036751  00000+0  94809-3 0  9999
2 24873  86.3808 291.8458 0002638 264.7984  95.2969 15.39010116474029
IRIDIUM 26              
1 24903U 97043A   24161.38729555  .00000862  00000+0  28778-3 0  9999
2 24903  86.3956 267.0263 0002004  96.4698 263.6727 14.36392860403216
IRIDIUM 22              
1 24907U 97043E   24161.36720723  .00000846  00000+0  28875-3 0  9999
2 24907  86.3956 270.2665 0002203  93.4611 266.6837 14.35281423403288
DUMMY MASS 1            
1 24925U 97048A   24161.45032200  .00000922  00000+0  10173-3 0  9997
2 24925  86.3329 307.5650 0008173  42.6354 317.5504 14.86235310449751
DUMMY MASS 2            
1 24926U 97048B   24161.48569419  .00000915  00000+0  10158-3 0  9993
2 24926  86.3329 309.0908 0009283  50.3235 309.8806 14.85993364449547
IRIDIUM 29              
1 24944U 97051A   24161.44221751  .00000888  00000+0  30060-3 0  9990
2 24944  86.3939 300.1520 0002293  87.0904 273.0555 14.35729267399776
IRIDIUM 33              
1 24946U 97051C   24161.46167960  .00000701  00000+0  24254-3 0  9997
2 24946  86.3855 299.3955 0006977 200.1161 159.9761 14.34382249399306
IRIDIUM 28              
1 24948U 97051E   24161.45125976  .00000942  00000+0  31339-3 0  9998
2 24948  86.3946 297.8756 0001857 101.5836 258.5570 14.36682782400311
